1 46527U 20061BD  21265.16036689  .00003264  00000-0  17273-3 0  9996
2 46527  97.4331 336.6943 0007832 346.8613  13.2415 15.16114388 54180
1 46527U 20061BD  21266.15036575  .00003783  00000-0  19960-3 0  9991
2 46527  97.4327 337.6639 0007724 343.0795  17.0179 15.16121442 54333
1 46527U 20061BD  21266.48036407  .00004099  00000-0  21598-3 0  9992
2 46527  97.4326 337.9870 0007687 341.6957  18.3998 15.16124562 54388
1 46527U 20061BD  21266.74436237  .00004061  00000-0  21397-3 0  9992
2 46527  97.4325 338.2455 0007653 340.8014  19.2930 15.16126352 54428
1 46527U 20061BD  21267.47035501  .00004018  00000-0  21171-3 0  9994
2 46527  97.4323 338.9564 0007593 337.8944  22.1960 15.16132157 54533
1 46527U 20061BD  21267.73435186  .00004705  00000-0  24728-3 0  9990
2 46527  97.4321 339.2151 0007557 336.9737  23.1156 15.16136358 54576
1 46527U 20061BD  21267.80035085  .00004839  00000-0  25426-3 0  9996
2 46527  97.4321 339.2797 0007552 336.7359  23.3532 15.16137310 54585
1 46527U 20061BD  21268.13034569  .00004444  00000-0  23378-3 0  9995
2 46527  97.4320 339.6028 0007529 335.4360  24.6513 15.16139621 54633
1 46527U 20061BD  21268.46033988  .00004507  00000-0  23701-3 0  9995
2 46527  97.4320 339.9259 0007498 334.1795  25.9062 15.16142864 54686
1 46527U 20061BD  21268.98832927  .00004783  00000-0  25126-3 0  9991
2 46527  97.4318 340.4429 0007454 332.1286  27.9547 15.16148316 54761
1 46527U 20061BD  21269.45031886  .00004542  00000-0  23877-3 0  9993
2 46527  97.4317 340.8953 0007416 330.2649  29.8162 15.16151826 54838
1 46527U 20061BD  21269.64831409  .00004639  00000-0  24378-3 0  9997
2 46527  97.4317 341.0892 0007400 329.4380  30.6421 15.16153762 54860
1 46527U 20061BD  21270.44029286  .00004583  00000-0  24082-3 0  9999
2 46527  97.4315 341.8646 0007344 326.2450  33.8315 15.16160033 54982
1 46527U 20061BD  21270.63828692  .00003353  00000-0  17715-3 0  9997
2 46527  97.4315 342.0585 0007331 325.3411  34.7344 15.16159036 55018
1 46527U 20061BD  21271.16627080  .00004691  00000-0  24640-3 0  9995
2 46527  97.4315 342.5755 0007310 323.1914  36.8816 15.16165834 55091
1 46527U 20061BD  21272.15623512  .00005149  00000-0  27004-3 0  9997
2 46527  97.4315 343.5447 0007234 319.1621  40.9069 15.16175412 55241
1 46527U 20061BD  21273.47617774  .00005629  00000-0  29473-3 0  9991
2 46527  97.4317 344.8372 0007145 313.8264  46.2378 15.16189347 55445
1 46527U 20061BD  21274.46612554  .00006217  00000-0  32505-3 0  9996
2 46527  97.4320 345.8066 0007096 309.8586  50.2022 15.16201959 55598
1 46527U 20061BD  21274.79610661  .00006092  00000-0  31854-3 0  9996
2 46527  97.4320 346.1296 0007080 308.4992  51.5605 15.16205427 55647
1 46527U 20061BD  21275.19208309  .00004532  00000-0  23790-3 0  9990
2 46527  97.4321 346.5174 0007012 307.0127  53.0463 15.16206799 55706
1 46527U 20061BD  21275.65405381  .00005077  00000-0  26603-3 0  9991
2 46527  97.4320 346.9699 0006989 305.0161  55.0415 15.16213114 55774
1 46527U 20061BD  21275.91803595  .00005405  00000-0  28295-3 0  9993
2 46527  97.4321 347.2284 0006980 303.8761  56.1808 15.16217118 55813
1 46527U 20061BD  21276.44599991  .00004242  00000-0  22280-3 0  9990
2 46527  97.4320 347.7455 0006960 301.6037  58.4516 15.16220516 55892
1 46527U 20061BD  21276.77597668  .00004326  00000-0  22714-3 0  9990
2 46527  97.4319 348.0687 0006972 300.0774  59.9767 15.16223939 55947
1 46527U 20061BD  21277.10595253  .00004463  00000-0  23418-3 0  9990
2 46527  97.4319 348.3918 0006960 298.6753  61.3780 15.16227511 55990
1 46527U 20061BD  21277.43592799  .00004640  00000-0  24331-3 0  9990
2 46527  97.4318 348.7150 0006969 297.2414  62.8108 15.16230575 56040
1 46527U 20061BD  21277.63391304  .00004632  00000-0  24289-3 0  9994
2 46527  97.4317 348.9089 0006974 296.3495  63.7021 15.16232297 56077
1 46527U 20061BD  21278.42585094  .00004654  00000-0  24399-3 0  9999
2 46527  97.4316 349.6845 0006941 293.0442  67.0058 15.16239157 56196
1 46527U 20061BD  21279.15179092  .00004285  00000-0  22486-3 0  9992
2 46527  97.4314 350.3955 0006927 289.9212  70.1275 15.16244465 56305
1 46527U 20061BD  21279.74573928  .00004592  00000-0  24068-3 0  9992
2 46527  97.4313 350.9772 0006874 287.3996  72.6485 15.16250552 56392
1 46527U 20061BD  21280.47167224  .00005012  00000-0  26233-3 0  9996
2 46527  97.4311 351.6880 0006847 284.2871  75.7602 15.16258957 56501
1 46527U 20061BD  21280.73564715  .00004896  00000-0  25632-3 0  9992
2 46527  97.4310 351.9465 0006845 283.1454  76.9015 15.16261436 56546
1 46527U 20061BD  21281.13160827  .00004987  00000-0  26097-3 0  9990
2 46527  97.4308 352.3343 0006839 281.4334  78.6131 15.16265948 56601
1 46527U 20061BD  21281.46157548  .00004569  00000-0  23939-3 0  9990
2 46527  97.4308 352.6573 0006842 280.0195  80.0266 15.16268260 56654
1 46527U 20061BD  21281.79154194  .00004442  00000-0  23282-3 0  9991
2 46527  97.4306 352.9804 0006836 278.6315  81.4144 15.16271317 56705
1 46527U 20061BD  21282.18750081  .00004106  00000-0  21544-3 0  9998
2 46527  97.4304 353.3681 0006841 276.9660  83.0795 15.16274447 56764
1 46527U 20061BD  21282.45147301  .00004103  00000-0  21530-3 0  9995
2 46527  97.4303 353.6266 0006834 275.7840  84.2614 15.16276782 56806
1 46527U 20061BD  21282.78143769  .00004264  00000-0  22356-3 0  9990
2 46527  97.4302 353.9497 0006848 274.4146  85.6304 15.16280057 56850
1 46527U 20061BD  21283.44136584  .00006340  00000-0  33060-3 0  9992
2 46527  97.4300 354.5958 0006847 271.6844  88.3604 15.16289835 56957
1 46527U 20061BD  21283.70533660  .00004776  00000-0  24993-3 0  9993
2 46527  97.4299 354.8543 0006859 270.4857  89.5590 15.16288272 56996
1 46527U 20061BD  21284.43125138  .00007125  00000-0  37095-3 0  9999
2 46527  97.4297 355.5650 0006877 267.4712  92.5734 15.16301042 57106
1 46527U 20061BD  21284.62922985  .00005645  00000-0  29467-3 0  9994
2 46527  97.4297 355.7588 0006881 266.5662  93.4784 15.16298110 57136
1 46527U 20061BD  21285.15716589  .00006176  00000-0  32197-3 0  9998
2 46527  97.4296 356.2757 0006913 264.4127  95.6317 15.16304519 57214
1 46527U 20061BD  21285.28914917  .00006871  00000-0  35776-3 0  9995
2 46527  97.4297 356.4049 0006902 263.8501  96.1946 15.16307804 57234
1 46527U 20061BD  21285.88307216  .00008775  00000-0  45571-3 0  9998
2 46527  97.4297 356.9863 0006915 261.2700  98.7750 15.16319259 57328
1 46527U 20061BD  21286.47699137  .00007724  00000-0  40149-3 0  9999
2 46527  97.4297 357.5678 0006909 258.8031 101.2425 15.16326925 57418
1 46527U 20061BD  21287.46685049  .00004945  00000-0  25830-3 0  9998
2 46527  97.4301 358.5371 0006930 254.4479 105.5989 15.16336378 57568
1 46527U 20061BD  21287.99477241  .00004675  00000-0  24436-3 0  9990
2 46527  97.4301 359.0539 0006910 252.0705 107.9775 15.16342518 57645
1 46527U 20061BD  21288.19274262  .00004635  00000-0  24226-3 0  9994
2 46527  97.4301 359.2478 0006910 251.2140 108.8344 15.16344748 57675
1 46527U 20061BD  21288.78665248  .00004477  00000-0  23412-3 0  9997
2 46527  97.4301 359.8294 0006958 248.7605 111.2885 15.16349860 57764
1 46527U 20061BD  21289.11660177  .00004175  00000-0  21854-3 0  9994
2 46527  97.4301   0.1525 0006973 247.3898 112.6598 15.16352046 57815
1 46527U 20061BD  21289.18259140  .00004085  00000-0  21387-3 0  9996
2 46527  97.4301   0.2171 0006972 247.1067 112.9430 15.16352604 57827
1 46527U 20061BD  21289.44655039  .00003911  00000-0  20494-3 0  9997
2 46527  97.4301   0.4757 0006995 246.0124 114.0377 15.16354099 57863
1 46527U 20061BD  21290.17243593  .00003300  00000-0  17344-3 0  9999
2 46527  97.4301   1.1865 0007060 243.1375 116.9137 15.16358463 57977
1 46527U 20061BD  21291.42623107  .00005747  00000-0  29926-3 0  9997
2 46527  97.4301   2.4144 0007148 238.2352 121.8185 15.16373650 58163
1 46527U 20061BD  21291.75617549  .00005618  00000-0  29260-3 0  9994
2 46527  97.4300   2.7375 0007160 236.7340 123.3207 15.16376356 58219
1 46527U 20061BD  21292.48204969  .00004842  00000-0  25265-3 0  9992
2 46527  97.4299   3.4484 0007214 233.7526 126.3041 15.16382232 58329
1 46527U 20061BD  21292.74600296  .00004733  00000-0  24703-3 0  9999
2 46527  97.4299   3.7069 0007225 232.6363 127.4212 15.16385074 58363
1 46527U 20061BD  21293.47187179  .00004842  00000-0  25258-3 0  9997
2 46527  97.4298   4.4177 0007254 229.6440 130.4160 15.16394181 58471
1 46527U 20061BD  21293.73582330  .00004615  00000-0  24086-3 0  9990
2 46527  97.4298   4.6763 0007275 228.4896 131.5714 15.16396753 58518
1 46527U 20061BD  21294.13174997  .00004314  00000-0  22536-3 0  9995
2 46527  97.4297   5.0640 0007285 226.8106 133.2519 15.16400049 58575
1 46527U 20061BD  21294.46168833  .00003893  00000-0  20372-3 0  9990
2 46527  97.4296   5.3871 0007324 225.6183 134.4451 15.16401677 58621
1 46527U 20061BD  21295.45150058  .00003276  00000-0  17195-3 0  9994
2 46527  97.4291   6.3564 0007394 221.7061 138.3609 15.16408094 58779
1 46527U 20061BD  21295.71545010  .00003158  00000-0  16587-3 0  9992
2 46527  97.4290   6.6148 0007412 220.6993 139.3686 15.16409523 58811
1 46527U 20061BD  21296.17736056  .00003329  00000-0  17464-3 0  9990
2 46527  97.4289   7.0671 0007454 219.0304 141.0392 15.16412955 58883
1 46527U 20061BD  21296.77124461  .00003412  00000-0  17887-3 0  9999
2 46527  97.4287   7.6487 0007513 216.6833 143.3887 15.16416687 58978
1 46527U 20061BD  21297.43111353  .00003840  00000-0  20086-3 0  9999
2 46527  97.4285   8.2947 0007579 214.2353 145.8392 15.16421921 59074
1 46527U 20061BD  21297.76104725  .00004095  00000-0  21396-3 0  9998
2 46527  97.4284   8.6177 0007612 213.0166 147.0592 15.16424765 59120
1 46527U 20061BD  21298.09098011  .00004406  00000-0  22992-3 0  9994
2 46527  97.4283   8.9408 0007640 211.8942 148.1830 15.16427948 59176
1 46527U 20061BD  21298.15696670  .00004235  00000-0  22111-3 0  9999
2 46527  97.4283   9.0054 0007646 211.6062 148.4713 15.16428053 59184
1 46527U 20061BD  21299.14676094  .00005424  00000-0  28212-3 0  9996
2 46527  97.4281   9.9744 0007742 207.7742 152.3078 15.16439344 59335
